{
  "type": "FeatureCollection",
  "features": [
    {
      "type": "Feature",
      "properties": {
        "norad_id": 30136,
        "name": "FENGYUN 1C DEB",
        "group": "fengyun-1c-debris",
        "lat": -66.14868866292001,
        "lon": -88.65371106287527,
        "alt_km": 935.546022992583,
        "timestamp": "2025-12-25T11:37:44.709419+00:00",
        "meta_object_name": "FENGYUN 1C DEB",
        "meta_object_id": "1999-025SR",
        "meta_epoch": "2025-12-24T03:58:54.837408",
        "meta_mean_motion": 13.95339011,
        "meta_eccentricity": 0.0129428,
        "meta_inclination": 98.5564,
        "meta_ra_of_asc_node": 250.2135,
        "meta_arg_of_pericenter": 38.0076,
        "meta_mean_anomaly": 115.716,
        "meta_ephemeris_type": 0,
        "meta_classification_type": "U",
        "meta_norad_cat_id": 30136,
        "meta_element_set_no": 999,
        "meta_rev_at_epoch": 96250,
        "meta_bstar": 0.00057209742,
        "meta_mean_motion_dot": 7.92e-06,
        "meta_mean_motion_ddot": 0,
        "tle_line1": "1 30136U 99025SR  25358.16591247  .00000792  00000+0  57210-3 0  9991",
        "tle_line2": "2 30136  98.5564 250.2135 0129428  38.0076 115.7160 13.95339011962508"
      },
      "geometry": {
        "type": "Point",
        "coordinates": [
          -88.65371106287527,
          -66.14868866292001
        ]
      }
    },
    {
      "type": "Feature",
      "properties": {
        "norad_id": 30138,
        "name": "FENGYUN 1C DEB",
        "group": "fengyun-1c-debris",
        "lat": 73.2532804041396,
        "lon": 21.798029066897982,
        "alt_km": 805.1535355315737,
        "timestamp": "2025-12-25T11:37:44.709430+00:00",
        "meta_object_name": "FENGYUN 1C DEB",
        "meta_object_id": "1999-025ST",
        "meta_epoch": "2025-12-25T03:04:35.405184",
        "meta_mean_motion": 14.20066587,
        "meta_eccentricity": 0.002025,
        "meta_inclination": 98.7581,
        "meta_ra_of_asc_node": 52.2636,
        "meta_arg_of_pericenter": 104.452,
        "meta_mean_anomaly": 310.5936,
        "meta_ephemeris_type": 0,
        "meta_classification_type": "U",
        "meta_norad_cat_id": 30138,
        "meta_element_set_no": 999,
        "meta_rev_at_epoch": 97577,
        "meta_bstar": 0.00073715,
        "meta_mean_motion_dot": 1.529e-05,
        "meta_mean_motion_ddot": 0,
        "tle_line1": "1 30138U 99025ST  25359.12818756  .00001529  00000+0  73715-3 0  9994",
        "tle_line2": "2 30138  98.7581  52.2636 0020250 104.4520 310.5936 14.20066587975775"
      },
      "geometry": {
        "type": "Point",
        "coordinates": [
          21.798029066897982,
          73.2532804041396
        ]
      }
    },
    {
      "type": "Feature",
      "properties": {
        "norad_id": 30139,
        "name": "FENGYUN 1C DEB",
        "group": "fengyun-1c-debris",
        "lat": -62.45591347463646,
        "lon": 5.678560397060749,
        "alt_km": 794.7127973122178,
        "timestamp": "2025-12-25T11:37:44.709440+00:00",
        "meta_object_name": "FENGYUN 1C DEB",
        "meta_object_id": "1999-025SU",
        "meta_epoch": "2025-12-24T12:21:51.816384",
        "meta_mean_motion": 14.03692729,
        "meta_eccentricity": 0.013093,
        "meta_inclination": 98.3653,
        "meta_ra_of_asc_node": 201.1732,
        "meta_arg_of_pericenter": 256.9832,
        "meta_mean_anomaly": 131.165,
        "meta_ephemeris_type": 0,
        "meta_classification_type": "U",
        "meta_norad_cat_id": 30139,
        "meta_element_set_no": 999,
        "meta_rev_at_epoch": 96415,
        "meta_bstar": 0.0010888122,
        "meta_mean_motion_dot": 1.807e-05,
        "meta_mean_motion_ddot": 0,
        "tle_line1": "1 30139U 99025SU  25358.51518306  .00001807  00000+0  10888-2 0  9995",
        "tle_line2": "2 30139  98.3653 201.1732 0130930 256.9832 131.1650 14.03692729964154"
      },
      "geometry": {
        "type": "Point",
        "coordinates": [
          5.678560397060749,
          -62.45591347463646
        ]
      }
    },
    {
      "type": "Feature",
      "properties": {
        "norad_id": 30140,
        "name": "FENGYUN 1C DEB",
        "group": "fengyun-1c-debris",
        "lat": -73.15328191428925,
        "lon": 93.20434441645628,
        "alt_km": 800.8614523996703,
        "timestamp": "2025-12-25T11:37:44.709450+00:00",
        "meta_object_name": "FENGYUN 1C DEB",
        "meta_object_id": "1999-025SV",
        "meta_epoch": "2025-12-24T10:43:00.393312",
        "meta_mean_motion": 14.2080827,
        "meta_eccentricity": 0.004121,
        "meta_inclination": 98.8251,
        "meta_ra_of_asc_node": 61.3008,
        "meta_arg_of_pericenter": 275.2502,
        "meta_mean_anomaly": 102.7174,
        "meta_ephemeris_type": 0,
        "meta_classification_type": "U",
        "meta_norad_cat_id": 30140,
        "meta_element_set_no": 999,
        "meta_rev_at_epoch": 97310,
        "meta_bstar": 0.0013100024,
        "meta_mean_motion_dot": 2.809e-05,
        "meta_mean_motion_ddot": 0,
        "tle_line1": "1 30140U 99025SV  25358.44653233  .00002809  00000+0  13100-2 0  9991",
        "tle_line2": "2 30140  98.8251  61.3008 0041210 275.2502 102.7174 14.20808270973106"
      },
      "geometry": {
        "type": "Point",
        "coordinates": [
          93.20434441645628,
          -73.15328191428925
        ]
      }
    },
    {
      "type": "Feature",
      "properties": {
        "norad_id": 30141,
        "name": "FENGYUN 1C DEB",
        "group": "fengyun-1c-debris",
        "lat": -42.79097315926186,
        "lon": -69.3739793918418,
        "alt_km": 716.7158239829059,
        "timestamp": "2025-12-25T11:37:44.709460+00:00",
        "meta_object_name": "FENGYUN 1C DEB",
        "meta_object_id": "1999-025SW",
        "meta_epoch": "2025-12-25T01:54:14.145696",
        "meta_mean_motion": 14.51815512,
        "meta_eccentricity": 0.0019237,
        "meta_inclination": 99.0148,
        "meta_ra_of_asc_node": 281.7407,
        "meta_arg_of_pericenter": 3.3894,
        "meta_mean_anomaly": 356.7426,
        "meta_ephemeris_type": 0,
        "meta_classification_type": "U",
        "meta_norad_cat_id": 30141,
        "meta_element_set_no": 999,
        "meta_rev_at_epoch": 98423,
        "meta_bstar": 0.0029912,
        "meta_mean_motion_dot": 0.00012034,
        "meta_mean_motion_ddot": 0,
        "tle_line1": "1 30141U 99025SW  25359.07933039  .00012034  00000+0  29912-2 0  9996",
        "tle_line2": "2 30141  99.0148 281.7407 0019237   3.3894 356.7426 14.51815512984232"
      },
      "geometry": {
        "type": "Point",
        "coordinates": [
          -69.3739793918418,
          -42.79097315926186
        ]
      }
    },
    {
      "type": "Feature",
      "properties": {
        "norad_id": 30142,
        "name": "FENGYUN 1C DEB",
        "group": "fengyun-1c-debris",
        "lat": 77.71689648030552,
        "lon": 27.862665865681777,
        "alt_km": 922.8640188426343,
        "timestamp": "2025-12-25T11:37:44.709470+00:00",
        "meta_object_name": "FENGYUN 1C DEB",
        "meta_object_id": "1999-025SX",
        "meta_epoch": "2025-12-25T04:25:43.862016",
        "meta_mean_motion": 14.10550922,
        "meta_eccentricity": 0.0102177,
        "meta_inclination": 99.1274,
        "meta_ra_of_asc_node": 75.1522,
        "meta_arg_of_pericenter": 272.9969,
        "meta_mean_anomaly": 85.9512,
        "meta_ephemeris_type": 0,
        "meta_classification_type": "U",
        "meta_norad_cat_id": 30142,
        "meta_element_set_no": 999,
        "meta_rev_at_epoch": 96474,
        "meta_bstar": 0.0016732,
        "meta_mean_motion_dot": 3.084e-05,
        "meta_mean_motion_ddot": 0,
        "tle_line1": "1 30142U 99025SX  25359.18453544  .00003084  00000+0  16732-2 0  9998",
        "tle_line2": "2 30142  99.1274  75.1522 0102177 272.9969  85.9512 14.10550922964747"
      },
      "geometry": {
        "type": "Point",
        "coordinates": [
          27.862665865681777,
          77.71689648030552
        ]
      }
    },
    {
      "type": "Feature",
      "properties": {
        "norad_id": 30143,
        "name": "FENGYUN 1C DEB",
        "group": "fengyun-1c-debris",
        "lat": 10.200383908556427,
        "lon": -179.3274624410045,
        "alt_km": 917.4478997016804,
        "timestamp": "2025-12-25T11:37:44.709480+00:00",
        "meta_object_name": "FENGYUN 1C DEB",
        "meta_object_id": "1999-025SY",
        "meta_epoch": "2025-12-25T00:13:06.729024",
        "meta_mean_motion": 14.02624051,
        "meta_eccentricity": 0.0103408,
        "meta_inclination": 98.7347,
        "meta_ra_of_asc_node": 181.8017,
        "meta_arg_of_pericenter": 256.6333,
        "meta_mean_anomaly": 233.3462,
        "meta_ephemeris_type": 0,
        "meta_classification_type": "U",
        "meta_norad_cat_id": 30143,
        "meta_element_set_no": 999,
        "meta_rev_at_epoch": 96391,
        "meta_bstar": 0.0010336,
        "meta_mean_motion_dot": 1.628e-05,
        "meta_mean_motion_ddot": 0,
        "tle_line1": "1 30143U 99025SY  25359.00910566  .00001628  00000+0  10336-2 0  9998",
        "tle_line2": "2 30143  98.7347 181.8017 0103408 256.6333 233.3462 14.02624051963917"
      },
      "geometry": {
        "type": "Point",
        "coordinates": [
          -179.3274624410045,
          10.200383908556427
        ]
      }
    }
  ]
}